H1 CPF 01  gfz 2021 03 06 01  5651 tandemx   
H2 1003001  6202 36605    2021 03 06 00 59 42 2021 03 11 00 00 42   120 1 1  0 0 0
H9
10 0 59283  55422.000000  0    2169826.527   2784753.651  -5922533.253
10 0 59283  55542.000000  0    2824460.397   3190047.687  -5420486.327
10 0 59283  55662.000000  0    3436566.669   3528870.517  -4823657.213
10 0 59283  55782.000000  0    3994246.802   3796123.308  -4142394.744
10 0 59283  55902.000000  0    4486447.349   3988138.270  -3388546.093
10 0 59283  56022.000000  0    4903184.684   4102732.980  -2575258.059
10 0 59283  56142.000000  0    5235752.926   4139235.604  -1716751.857
10 0 59283  56262.000000  0    5476911.782   4098480.455   -828075.098
10 0 59283  56382.000000  0    5621047.909   3982772.770     75165.080
10 0 59283  56502.000000  0    5664306.324   3795824.022    977081.416
10 0 59283  56622.000000  0    5604688.168   3542657.703   1861794.176
10 0 59283  56742.000000  0    5442110.499   3229487.818   2713719.684
10 0 59283  56862.000000  0    5178426.957   2863574.671   3517853.657
10 0 59283  56982.000000  0    4817408.664   2453060.043   4260042.885
10 0 59283  57102.000000  0    4364685.344   2006786.021   4927237.165
10 0 59283  57222.000000  0    3827653.207   1534105.338   5507719.393
10 0 59283  57342.000000  0    3215345.161   1044684.424   5991311.504
10 0 59283  57462.000000  0    2538270.115    548303.943   6369546.734
10 0 59283  57582.000000  0    1808227.459     54664.127   6635810.244
10 0 59283  57702.000000  0    1038098.907   -426803.383   6785450.196
10 0 59283  57822.000000  0     241618.462   -887115.509   6815855.313
10 0 59283  57942.000000  0    -566873.514  -1317904.782   6726496.549
10 0 59283  58062.000000  0   -1372688.144  -1711571.313   6518935.013
10 0 59283  58182.000000  0   -2161053.579  -2061416.744   6196794.859
10 0 59283  58302.000000  0   -2917383.470  -2361757.633   5765704.671
10 0 59283  58422.000000  0   -3627548.863  -2608019.907   5233207.950
10 0 59283  58542.000000  0   -4278147.664  -2796810.912   4608636.186
10 0 59283  58662.000000  0   -4856762.792  -2925966.476   3902949.208
10 0 59283  58782.000000  0   -5352205.397  -2994572.032   3128545.950
10 0 59283  58902.000000  0   -5754738.611  -3002958.312   2299048.672
10 0 59283  59022.000000  0   -6056277.329  -2952672.009   1429061.899
10 0 59283  59142.000000  0   -6250557.005  -2846420.637    533909.212
10 0 59283  59262.000000  0   -6333266.456  -2687991.640   -370643.987
10 0 59283  59382.000000  0   -6302143.150  -2482149.933  -1268677.023
10 0 59283  59502.000000  0   -6157025.506  -2234514.653  -2144404.282
10 0 59283  59622.000000  0   -5899861.767  -1951419.754  -2982459.776
10 0 59283  59742.000000  0   -5534677.755  -1639762.075  -3768171.146
10 0 59283  59862.000000  0   -5067503.671  -1306840.869  -4487817.762
10 0 59283  59982.000000  0   -4506263.271   -960192.840  -5128867.922
10 0 59283  60102.000000  0   -3860627.708   -607426.250  -5680191.479
10 0 59283  60222.000000  0   -3141838.371   -256058.512  -6132243.529
10 0 59283  60342.000000  0   -2362504.134     86639.388  -6477217.931
10 0 59283  60462.000000  0   -1536376.847    413788.135  -6709170.421
10 0 59283  60582.000000  0    -678108.919    719032.583  -6824110.144
10 0 59283  60702.000000  0     197001.992    996661.403  -6820060.162
10 0 59283  60822.000000  0    1073277.994   1241710.223  -6697087.519
10 0 59283  60942.000000  0    1934935.266   1450048.052  -6457305.066
10 0 59283  61062.000000  0    2766362.956   1618446.597  -6104839.128
10 0 59283  61182.000000  0    3552401.879   1744629.840  -5645765.252
10 0 59283  61302.000000  0    4278617.750   1827303.566  -5088013.317
10 0 59283  61422.000000  0    4931567.999   1866165.356  -4441242.979
10 0 59283  61542.000000  0    5499056.275   1861893.900  -3716686.710
10 0 59283  61662.000000  0    5970367.862   1816117.184  -2926963.641
10 0 59283  61782.000000  0    6336482.759   1731360.449  -2085866.949
10 0 59283  61902.000000  0    6590260.717   1610975.029  -1208125.011
10 0 59283  62022.000000  0    6726591.421   1459048.318   -309141.694
10 0 59283  62142.000000  0    6742506.009   1280296.977    595279.755
10 0 59283  62262.000000  0    6637245.004   1079947.082   1489221.017
10 0 59283  62382.000000  0    6412285.367    863603.287   2356937.241
10 0 59283  62502.000000  0    6071319.794    637109.536   3183144.318
10 0 59283  62622.000000  0    5620191.923    406406.340   3953295.335
10 0 59283  62742.000000  0    5066787.379    177387.812   4653841.955
10 0 59283  62862.000000  0    4420887.324    -44236.807   5272474.062
10 0 59283  62982.000000  0    3693985.166   -253076.529   5798336.556
10 0 59283  63102.000000  0    2899071.679   -444180.873   6222215.198
10 0 59283  63222.000000  0    2050395.978   -613149.405   6536692.385
10 0 59283  63342.000000  0    1163205.677   -756227.312   6736271.667
10 0 59283  63462.000000  0     253469.086   -870385.142   6817469.036
10 0 59283  63582.000000  0    -662413.498   -953380.542   6778868.653
10 0 59283  63702.000000  0   -1567904.598  -1003801.929   6621145.103
10 0 59283  63822.000000  0   -2446626.746  -1021092.423   6347051.652
10 0 59283  63942.000000  0   -3282656.990  -1005553.936   5961375.517
10 0 59283  64062.000000  0   -4060817.151   -958331.736   5470861.289
10 0 59283  64182.000000  0   -4766954.582   -881380.630   4884099.549
10 0 59283  64302.000000  0   -5388206.884   -777412.010   4211381.506
10 0 59283  64422.000000  0   -5913244.526   -649822.953   3464521.715
10 0 59283  64542.000000  0   -6332485.937   -502608.793   2656652.603
10 0 59283  64662.000000  0   -6638282.854   -340261.009   1801994.176
10 0 59283  64782.000000  0   -6825070.036   -167652.564    915599.423
10 0 59283  64902.000000  0   -6889473.023     10085.659     13081.885
10 0 59283  65022.000000  0   -6830372.022    187695.082   -889668.091
10 0 59283  65142.000000  0   -6648919.628    359922.886  -1776772.449
10 0 59283  65262.000000  0   -6348512.947    521654.500  -2632651.446
10 0 59283  65382.000000  0   -5934723.534    668042.433  -3442303.954
10 0 59283  65502.000000  0   -5415181.426    794628.381  -4191575.024
10 0 59283  65622.000000  0   -4799420.978    897455.159  -4867401.966
10 0 59283  65742.000000  0   -4098692.856    973165.662  -5458037.220
10 0 59283  65862.000000  0   -3325747.662   1019087.072  -5953243.849
10 0 59283  65982.000000  0   -2494596.085   1033298.081  -6344462.120
10 0 59283  66102.000000  0   -1620251.636   1014679.025  -6624945.640
10 0 59283  66222.000000  0    -718458.977    962944.786  -6789866.626
10 0 59283  66342.000000  0     194585.375    878658.571  -6836388.530
10 0 59283  66462.000000  0    1102515.651    763227.498  -6763709.842
10 0 59283  66582.000000  0    1989083.664    618879.455  -6573078.969
10 0 59283  66702.000000  0    2838443.733    448621.735  -6267774.741
10 0 59283  66822.000000  0    3635431.278    256182.494  -5853055.959
10 0 59283  66942.000000  0    4365830.674     45934.407  -5336079.262
10 0 59283  67062.000000  0    5016629.500   -177197.089  -4725787.554
10 0 59283  67182.000000  0    5576256.766   -407840.021  -4032766.929
10 0 59283  67302.000000  0    6034797.171   -640295.009  -3269072.430
10 0 59283  67422.000000  0    6384177.877   -868664.959  -2448026.256
10 0 59283  67542.000000  0    6618323.722  -1086992.741  -1583989.604
10 0 59283  67662.000000  0    6733275.343  -1289402.889   -692111.336
10 0 59283  67782.000000  0    6727266.505  -1470244.378    211940.842
10 0 59283  67902.000000  0    6600759.042  -1624230.885   1112262.021
10 0 59283  68022.000000  0    6356431.978  -1746574.916   1992998.492
10 0 59283  68142.000000  0    5999126.605  -1833112.320   2838636.163
10 0 59283  68262.000000  0    5535746.865  -1880412.709   3634282.714
10 0 59283  68382.000000  0    4975118.697  -1885874.618   4365935.657
10 0 59283  68502.000000  0    4327813.140  -1847801.998   5020731.385
10 0 59283  68622.000000  0    3605938.782  -1765460.228   5587171.899
10 0 59283  68742.000000  0    2822905.890  -1639111.706   6055325.419
10 0 59283  68862.000000  0    1993169.311  -1470029.487   6416994.983
10 0 59283  68982.000000  0    1131956.723  -1260489.711   6665856.370
10 0 59283  69102.000000  0     254985.440  -1013741.957   6797563.114
10 0 59283  69222.000000  0    -621825.709   -733958.152   6809816.795
10 0 59283  69342.000000  0   -1482644.311   -426161.879   6702403.663
10 0 59283  69462.000000  0   -2312008.854    -96138.412   6477198.029
10 0 59283  69582.000000  0   -3095105.383    249673.296   6138132.161
10 0 59283  69702.000000  0   -3818033.188    604304.785   5691132.849
10 0 59283  69822.000000  0   -4468055.596    960396.224   5144023.910
10 0 59283  69942.000000  0   -5033830.446   1310346.728   4506395.151
10 0 59283  70062.000000  0   -5505616.200   1646474.254   3789438.908
10 0 59283  70182.000000  0   -5875447.902   1961181.126   3005756.098
10 0 59283  70302.000000  0   -6137280.247   2247121.867   2169135.662
10 0 59283  70422.000000  0   -6287094.722   2497369.537   1294310.031
10 0 59283  70542.000000  0   -6322966.996   2705576.723    396689.705
10 0 59283  70662.000000  0   -6245091.089   2866126.055   -507916.329
10 0 59283  70782.000000  0   -6055761.114   2974266.672  -1403587.926
10 0 59283  70902.000000  0   -5759310.567   3026233.241  -2274582.673
10 0 59283  71022.000000  0   -5362010.342   3019344.835  -3105620.977
10 0 59283  71142.000000  0   -4871928.410   2952080.010  -3882158.713
10 0 59283  71262.000000  0   -4298756.442   2824127.821  -4590642.554
10 0 59283  71382.000000  0   -3653608.214   2636413.342  -5218742.960
10 0 59283  71502.000000  0   -2948795.541   2391098.004  -5755560.673
10 0 59283  71622.000000  0   -2197588.611   2091556.077  -6191805.922
10 0 59283  71742.000000  0   -1413962.464   1742326.822  -6519948.952
10 0 59283  71862.000000  0    -612337.103   1349043.775  -6734337.305
99
